60P/Tsuchinshan,e,3.5877,267.5320,216.9680,3.523656,0.1490095,0.53455694,147.7808,08/27.0/2021,2000,g 11.5,6.0
# From MPEC 2015-Q71
61P/Shajn-Schaldach,e,5.9989,162.9749,221.8121,3.687588,0.1391844,0.42395530,301.0932,08/27.0/2021,2000,g  6.0,10.0
# From MPC109147
62P/Tsuchinshan,e,4.7519,69.2573,47.1208,3.356230,0.1602974,0.62840549,223.9484,08/27.0/2021,2000,g  8.0,10.0
# From MPC 84320
63P/Wild,e,19.7279,358.0185,169.0878,5.607118,0.0742326,0.64883251,227.8019,08/27.0/2021,2000,g 10.5,6.0
# From MPEC 2021-F20
64P/Swift-Gehrels,e,8.9498,299.9908,97.0704,4.453442,0.1048722,0.68805604,107.6712,08/27.0/2021,2000,g 13.4,4.0
# From MPEC 2021-F20
65P/Gunn,e,9.1787,62.0152,213.8885,3.886250,0.1286494,0.24932316,181.3093,08/27.0/2021,2000,g 11.2,4.0
# From MPEC 2021-F20
66P/duToit,e,18.6472,21.8207,257.3988,6.067246,0.0659503,0.78665153,78.8734,08/27.0/2021,2000,g 15.0,4.0
# From MPEC 2021-P47
67P/Churyumov-Gerasimenko,e,3.8714,36.3328,22.1302,3.456414,0.1533789,0.64974245,349.7146,08/27.0/2021,2000,g 11.0,4.0
# From MPC 75716
68P/Klemola,e,11.1105,175.0575,153.1518,4.954239,0.0893796,0.63764800,58.7083,08/27.0/2021,2000,g 10.0,4.0
# From MPC114607
69P/Taylor,e,22.0345,104.8239,343.4338,3.886998,0.1286123,0.41315496,114.8402,08/27.0/2021,2000,g  9.5,12.0
# From MPEC 2021-BE3
70P/Kojima,e,6.5982,119.2689,1.8326,3.677293,0.1397693,0.45367578,350.4775,08/27.0/2021,2000,g 11.0,6.0
# From MPC107051
71P/Clark,e,9.4377,59.4118,209.0572,3.138273,0.1772834,0.49390612,269.1298,08/27.0/2021,2000,g  9.8,6.0
# From MPC 89011
72P/Denning-Fujikawa,e,10.9434,26.6931,346.6931,4.310477,0.1101327,0.81847446,287.5379,08/27.0/2021,2000,g 17.5,10.0
# From MPC106348
73P/Schwassmann-Wachmann,e,11.2284,69.6249,199.4734,3.092783,0.1812091,0.68548624,294.1006,08/27.0/2021,2000,g 11.5,6.0
# From MPC106348
73P-T/Schwassmann-Wachmann,e,11.2305,69.6275,199.4548,3.094347,0.1810717,0.68568865,293.8789,08/27.0/2021,2000,g 11.5,6.0
# From MPEC 2021-P47
74P/Smirnova-Chernykh,e,6.0710,69.8923,111.2239,4.351473,0.1085799,0.14397088,130.7899,08/27.0/2021,2000,g  5.0,6.0
# From MPEC 2021-F20
76P/West-Kohoutek-Ikemura,e,30.4612,84.1143,359.9614,3.472307,0.1523270,0.53816456,102.2049,08/27.0/2021,2000,g 15.5,4.0
# From MPC100283
77P/Longmore,e,24.3185,14.7778,196.8250,3.622140,0.1429737,0.35197765,276.4541,08/27.0/2021,2000,g  7.0,8.0
# From MPEC 2021-O56
78P/Gehrels,e,6.2520,210.5177,192.6347,3.738595,0.1363457,0.46218863,119.5819,08/27.0/2021,2000,g  5.5,8.0
# From MPC 94675
79P/du Toit-Hartley,e,3.1479,280.5314,281.7932,2.942989,0.1952186,0.61883075,210.7156,08/27.0/2021,2000,g 16.0,4.0
# From MPEC 2014-P41
80P/Peters-Hartley,e,29.9282,259.8135,339.2517,4.024320,0.1220858,0.59876022,302.7620,08/27.0/2021,2000,g  9.0,4.0
# From MPC105241
81P/Wild,e,3.2368,136.0978,41.6727,3.451957,0.1536760,0.53704753,286.8918,08/27.0/2021,2000,g  7.0,6.0
# From MPC133426
82P/Gehrels,e,1.1287,239.3086,226.6235,4.135046,0.1172151,0.12169352,135.9101,08/27.0/2021,2000,g 15.0,4.0
# From MPEC 2020-FB5
84P/Giclas,e,7.5516,108.1722,281.5738,3.549176,0.1474052,0.51577291,66.2016,08/27.0/2021,2000,g  9.5,8.0
# From MPC109147
86P/Wild,e,15.4744,72.3580,179.3918,3.601928,0.1441788,0.37236237,336.2737,08/27.0/2021,2000,g 11.0,6.0
# From MPEC 2020-SI8
87P/Bus,e,2.6113,181.6569,25.4199,3.448411,0.1539131,0.39076590,72.8913,08/27.0/2021,2000,g  7.2,10.0
# From MPEC 2021-F20
88P/Howell,e,4.3836,56.6796,235.9080,3.105090,0.1801328,0.56420278,60.2418,08/27.0/2021,2000,g 12.4,4.0
# From MPC100283
89P/Russell,e,12.0694,41.3738,250.3571,3.753886,0.1355135,0.40855001,232.3351,08/27.0/2021,2000,g 11.5,6.0
# From MPC107051
90P/Gehrels,e,9.6480,13.2050,29.0578,6.052258,0.0661954,0.51026235,101.2394,08/27.0/2021,2000,g  8.5,6.0
# From MPEC 2021-O56
91P/Russell,e,14.0824,247.7885,354.9387,3.896331,0.1281505,0.33153112,37.1877,08/27.0/2021,2000,g  7.5,6.0
# From MPEC 2014-J58
92P/Sanguin,e,19.4995,181.3665,163.7589,5.344092,0.0797798,0.66098339,188.8465,08/27.0/2021,2000,g 12.0,6.0
# From NK 2707
93P/Lovas,e,12.2036,339.6495,74.8062,4.382422,0.1074318,0.61270956,176.1794,08/27.0/2021,2000,g  9.0,4.0
# From MPEC 2020-W26
94P/Russell,e,6.1880,70.8583,92.4566,3.507469,0.1500422,0.36495367,265.1196,08/27.0/2021,2000,g  9.0,6.0
# From MPC 75717
95P/Chiron,e,6.9285,209.2789,339.6871,13.70300,0.0194303,0.37701956,181.8347,08/27.0/2021,2000,g  6.5,2.0
# From MPEC 2017-T14
96P/Machholz,e,57.5539,93.9819,14.7444,3.028531,0.1870063,0.96157912,262.3481,08/27.0/2021,2000,g  9.0,4.0
# From MPC 77020
97P/Metcalf-Brewington,e,17.9506,184.0767,229.9385,4.761556,0.0948595,0.46019603,343.6434,08/27.0/2021,2000,g  5.5,6.0
# From MPEC 2013-H38
98P/Takamizawa,e,10.5602,114.7049,157.8834,3.798944,0.1331097,0.56238124,31.1650,08/27.0/2021,2000,g  9.0,8.0
# From MPEC 2021-L04
99P/Kowal,e,4.3391,28.1040,174.9641,6.108540,0.0652827,0.22960930,345.0546,08/27.0/2021,2000,g  4.5,6.0
# From MPEC 2013-O31
100P/Hartley,e,25.5646,37.6958,181.9880,3.432416,0.1549902,0.41229060,305.9105,08/27.0/2021,2000,g  9.0,4.0
# From MPEC 2020-FB5
101P/Chernykh,e,5.0526,116.2282,277.7049,5.803661,0.0704938,0.59602631,41.7565,08/27.0/2021,2000,g 10.0,4.8
# From MPC 86232
102P/Shoemaker,e,25.8849,339.3653,20.5525,3.813007,0.1323740,0.45711141,28.6696,08/27.0/2021,2000,g  6.5,8.0
# From MPEC 2018-HA5
103P/Hartley,e,13.6030,219.7340,181.2820,3.476006,0.1520839,0.69333204,241.8673,08/27.0/2021,2000,g  8.5,8.0
# From MPC133426
104P/Kowal,e,5.7010,207.2266,227.2379,3.208034,0.1715322,0.66545249,336.3871,08/27.0/2021,2000,g 14.2,4.0
# From MPC109147
105P/Singer Brewster,e,9.1699,192.4089,46.4872,3.467618,0.1526360,0.40936339,169.9656,08/27.0/2021,2000,g 11.5,6.0
# From MPEC 2021-P47
106P/Schuster,e,19.5364,48.8859,353.6671,3.762096,0.1350701,0.59367667,1.1117,08/27.0/2021,2000,g 14.0,4.8
# From MPEC 2015-M77
107P/Wilson-Harrington,e,2.7988,266.7876,95.4173,2.625093,0.2317326,0.63162779,275.9544,08/27.0/2021,2000,g  9.0,4.0
# From MPEC 2021-P47
108P/Ciffreo,e,11.4379,50.2922,354.4138,3.737875,0.1363851,0.55582119,358.0795,08/27.0/2021,2000,g  8.0,12.0
# From  105, 420
109P/Swift-Tuttle,e,113.9918,139.0356,152.9249,26.14893,0.0073709,0.96280654,77.3434,08/27.0/2021,2000,g  4.0,6.0
# From MPEC 2021-P47
110P/Hartley,e,11.7071,287.5350,167.4482,3.601756,0.1441892,0.31818808,352.4569,08/27.0/2021,2000,g  1.0,12.0
# From MPC 75718
111P/Helin-Roman-Crockett,e,4.2268,89.7665,0.9815,4.147701,0.1166791,0.10610118,8.4514,08/27.0/2021,2000,g  5.0,8.0
# From MPEC 2021-F20
112P/Urata-Niijima,e,24.1983,31.8340,21.4784,3.525436,0.1488966,0.58995979,84.2728,08/27.0/2021,2000,g 15.3,4.0
# From MPEC 2021-P47
113P/Spitaler,e,5.2919,306.6983,115.4152,3.696256,0.1386951,0.42048282,321.4195,08/27.0/2021,2000,g 13.5,4.0
# From MPEC 2021-N06
114P/Wiseman-Skiff,e,18.2741,271.0479,172.7655,3.544937,0.1476697,0.55479017,87.2676,08/27.0/2021,2000,g 11.5,6.0
# From MPEC 2020-SI8
115P/Maury,e,11.6776,176.0099,120.9773,4.272058,0.1116216,0.51854383,43.9121,08/27.0/2021,2000,g 10.5,6.0
# From MPC106348
116P/Wild,e,3.6033,20.9821,173.3297,3.490049,0.1511669,0.37060469,311.0205,08/27.0/2021,2000,g  2.5,10.0
# From MPEC 2021-F20
117P/Helin-Roman-Alu,e,8.7031,58.8416,222.8762,4.084144,0.1194132,0.25565636,322.4475,08/27.0/2021,2000,g 10.8,4.0
# From MPEC 2021-N06
118P/Shoemaker-Levy,e,10.0964,142.1130,314.5526,3.356821,0.1602551,0.45457984,287.3304,08/27.0/2021,2000,g 12.0,4.0
# From MPEC 2021-P47
119P/Parker-Hartley,e,7.3961,104.6300,321.8491,3.812658,0.1323922,0.38936705,313.7432,08/27.0/2021,2000,g  3.5,8.0
# From MPEC 2020-SI8
120P/Mueller,e,8.4899,358.6734,36.5692,3.961754,0.1249893,0.37454617,13.9765,08/27.0/2021,2000,g 12.0,4.0
# From MPEC 2020-SI8
121P/Shoemaker-Holt,e,20.1632,94.1235,11.4155,4.584435,0.1004096,0.18574171,292.7847,08/27.0/2021,2000,g  6.5,8.0
# From MPC 75718
122P/de Vico,e,84.9994,79.5682,13.0037,17.62566,0.0133194,0.96225344,126.3092,08/27.0/2021,2000,g  7.5,5.2
# From MPEC 2021-F20
123P/West-Hartley,e,15.2876,46.0985,103.9546,3.875635,0.1291783,0.44645432,120.7260,08/27.0/2021,2000,g 12.2,4.0
# From MPEC 2021-F20
124P/Mrkos,e,31.5402,0.2923,184.0756,3.322803,0.1627224,0.50341033,79.2321,08/27.0/2021,2000,g 15.2,4.0
# From MPEC 2015-M77
125P/Spacewatch,e,9.9866,153.1470,87.2400,3.126146,0.1783159,0.51256606,195.3803,08/27.0/2021,2000,g  9.0,4.0
# From MPC 66205
126P/IRAS,e,45.8728,357.8670,356.5340,5.639202,0.0736000,0.69633135,310.1500,08/27.0/2021,2000,g  9.0,4.0
# From MPC 84321
127P/Holt-Olmstead,e,14.2964,13.6279,6.4333,3.452473,0.1536415,0.35995522,306.3897,08/27.0/2021,2000,g 11.0,6.0
# From MPC 89014
128P/Shoemaker-Holt,e,4.3680,214.3010,210.2866,4.491651,0.1035369,0.32088641,175.0468,08/27.0/2021,2000,g  8.5,4.0
# From MPEC 2019-TG9
129P/Shoemaker-Levy,e,3.4422,184.8779,307.7362,4.284133,0.1111500,0.08411178,308.6012,08/27.0/2021,2000,g 11.0,4.0
# From MPC 78188
130P/McNaught-Hughes,e,6.0626,70.2188,246.0261,3.383710,0.1583486,0.46137954,207.7736,08/27.0/2021,2000,g 10.0,6.0
# From MPC102101
131P/Mueller,e,7.3563,214.1537,179.0240,3.680358,0.1395947,0.34405361,131.9932,08/27.0/2021,2000,g 11.0,4.0
# From MPEC 2021-P47
132P/Helin-Roman-Alu,e,5.3826,173.9969,216.3439,3.886985,0.1286130,0.56475867,349.9550,08/27.0/2021,2000,g 11.0,6.0
# From MPC 94676
133P/Elst-Pizarro,e,1.3893,160.1048,131.8552,3.164912,0.1750498,0.15686792,187.3243,08/27.0/2021,2000,g 15.4,2.0
# From MPC 89012
134P/Kowal-Vavrova,e,4.3387,202.0692,18.8887,6.261069,0.0629117,0.58584719,167.2070,08/27.0/2021,2000,g 11.5,4.0
# From MPEC 2021-F20
135P/Shoemaker-Levy,e,6.0623,213.0262,22.3103,3.802586,0.1329185,0.29519306,330.3203,08/27.0/2021,2000,g  7.0,8.0
# From MPEC 2020-W26
136P/Mueller,e,9.4244,137.4490,224.9202,4.192839,0.1148000,0.29291349,219.4596,08/27.0/2021,2000,g 11.0,4.0
# From MPEC 2021-N06
137P/Shoemaker-Levy,e,4.8542,233.0202,141.0454,4.520609,0.1025436,0.57360404,101.2246,08/27.0/2021,2000,g 11.0,4.0
# From MPEC 2016-U66
138P/Shoemaker-Levy,e,10.0908,309.3288,95.5387,3.621859,0.1429904,0.53064037,121.1180,08/27.0/2021,2000,g 15.0,6.0
# From MPEC 2020-HN5
